[{"OBJECT_NAME":"STARLINK-6118","OBJECT_ID":"2023-090F","EPOCH":"2026-03-09T20:12:02.855808","MEAN_MOTION":15.02540093,"ECCENTRICITY":0.00010793,"INCLINATION":43.003,"RA_OF_ASC_NODE":274.0477,"ARG_OF_PERICENTER":269.9364,"MEAN_ANOMALY":90.1354,"EPHEMERIS_TYPE":0,"CLASSIFICATION_TYPE":"U","NORAD_CAT_ID":57106,"ELEMENT_SET_NO":999,"REV_AT_EPOCH":15043,"BSTAR":1.12463e-6,"MEAN_MOTION_DOT":-1.88e-6,"MEAN_MOTION_DDOT":0},{"OBJECT_NAME":"CZ-4C DEB","OBJECT_ID":"2015-069E","EPOCH":"2026-03-08T09:26:17.543040","MEAN_MOTION":15.0129982,"ECCENTRICITY":0.00755181,"INCLINATION":98.2766,"RA_OF_ASC_NODE":51.2744,"ARG_OF_PERICENTER":283.3594,"MEAN_ANOMALY":75.9217,"EPHEMERIS_TYPE":0,"CLASSIFICATION_TYPE":"U","NORAD_CAT_ID":42672,"ELEMENT_SET_NO":999,"REV_AT_EPOCH":54397,"BSTAR":0.0018440127,"MEAN_MOTION_DOT":0.00025217,"MEAN_MOTION_DDOT":0}]
